[{"OBJECT_NAME":"HORS 2","OBJECT_ID":"2023-091AG","EPOCH":"2026-03-09T22:11:34.810944","MEAN_MOTION":15.2928008,"ECCENTRICITY":0.00098173,"INCLINATION":97.5195,"RA_OF_ASC_NODE":134.7443,"ARG_OF_PERICENTER":79.3164,"MEAN_ANOMALY":280.9181,"EPHEMERIS_TYPE":0,"CLASSIFICATION_TYPE":"U","NORAD_CAT_ID":57196,"ELEMENT_SET_NO":999,"REV_AT_EPOCH":14934,"BSTAR":0.00059338338,"MEAN_MOTION_DOT":0.00016821,"MEAN_MOTION_DDOT":0},{"OBJECT_NAME":"STARLINK-36072","OBJECT_ID":"2025-281J","EPOCH":"2026-03-09T04:24:15.195744","MEAN_MOTION":15.27591238,"ECCENTRICITY":7.699e-5,"INCLINATION":42.9959,"RA_OF_ASC_NODE":346.7232,"ARG_OF_PERICENTER":265.3751,"MEAN_ANOMALY":94.7013,"EPHEMERIS_TYPE":0,"CLASSIFICATION_TYPE":"U","NORAD_CAT_ID":66856,"ELEMENT_SET_NO":999,"REV_AT_EPOCH":1610,"BSTAR":0.0006549002,"MEAN_MOTION_DOT":0.00017809,"MEAN_MOTION_DDOT":0}]
